ORBCOMM FM103           
1 40091U 14040F   25007.48501623  .00001547  00000+0  37272-3 0  9996
2 40091  47.0052  56.4797 0002998 269.6514  90.4027 14.57668814540655
ORBCOMM FM114           
1 41179U 15081A   25007.58099055  .00001917  00000+0  45217-3 0  9991
2 41179  47.0031 325.1799 0002691 327.3081  32.7637 14.57735138481035
ORBCOMM FM119           
1 41180U 15081B   25007.08068032  .00001616  00000+0  38783-3 0  9995
2 41180  46.9984 236.7901 0000804  27.7620 332.3308 14.57643172482219
ORBCOMM FM105           
1 41181U 15081C   25007.61128362  .00000688  00000+0  24052-3 0  9990
2 41181  46.9998 223.7573 0001871 309.4516  50.6199 14.44958174477528
ORBCOMM FM110           
1 41182U 15081D   25007.55652582  .00002469  00000+0  57133-3 0  9995
2 41182  47.0020 324.6652 0000808 116.0047 244.0921 14.57782467480908
ORBCOMM FM118           
1 41183U 15081E   25007.33188827  .00002620  00000+0  60497-3 0  9994
2 41183  47.0046 326.1213 0001275 111.8353 248.2668 14.57706345480971
ORBCOMM FM112           
1 41184U 15081F   25007.60541016  .00001460  00000+0  35340-3 0  9998
2 41184  46.9969 233.4859 0000942 359.1074   0.9810 14.57695984482236
ORBCOMM FM113           
1 41185U 15081G   25007.58281323  .00001647  00000+0  39408-3 0  9994
2 41185  46.9985 233.8994 0000730  39.0761 321.0177 14.57698221482219
